#cP2023  8 19  0  0  0.00000000      96 ORBIT IGS20 HLM  IGS
## 2275 518400.00000000   900.00000000 60175 0.0000000000000
+   32   G01G02G03G04G05G06G07G08G09G10G11G12G13G14G15G16G17
+        G18G19G20G21G22G23G24G25G26G27G28G29G30G31G32  0  0
+          0  0  0  0  0  0  0  0  0  0  0  0  0  0  0  0  0
+          0  0  0  0  0  0  0  0  0  0  0  0  0  0  0  0  0
+          0  0  0  0  0  0  0  0  0  0  0  0  0  0  0  0  0
++         2  2  2  2  2  2  2  2  2  3  2  2  3  2  2  2  2
++         2  2  2  2  2  2  2  2  2  2  2  2  2  2  2  0  0
++         0  0  0  0  0  0  0  0  0  0  0  0  0  0  0  0  0
++         0  0  0  0  0  0  0  0  0  0  0  0  0  0  0  0  0
++         0  0  0  0  0  0  0  0  0  0  0  0  0  0  0  0  0
%c G  cc GPS ccc cccc cccc cccc cccc ccccc ccccc ccccc ccccc
%c cc cc ccc ccc cccc cccc cccc cccc ccccc ccccc ccccc ccccc
%f  1.2500000  1.025000000  0.00000000000  0.000000000000000
%f  0.0000000  0.000000000  0.00000000000  0.000000000000000
%i    0    0    0    0      0      0      0      0         0
%i    0    0    0    0      0      0      0      0         0
/* RAPID ORBIT COMBINATION FROM WEIGHTED AVERAGE OF:        
/* cod emr esa gfz grg jgx jpl ngs sio usn whu              
/* REFERENCED TO IGS TIME (IGST) AND TO WEIGHTED MEAN POLE: 
/* PCV:IGS20      OL/AL:FES2014b NONE     Y  ORB:CMB CLK:CMB
*  2023  8 19  6  0  0.00000000
PG01  12949.356411 -21331.918519  -8915.722755    168.076134  7  6  4 107       
PG02  16476.384933 -20694.108766   -356.357442   -563.863423  4  8  5  92       
PG03   5670.394903 -13855.852230 -22076.511667   -180.048430  5  6  2 106       
PG04   1878.914722 -23981.245927 -11117.489619    130.011188  6  8  7 118       
PG05 -20799.258043   6511.316730  15069.122886   -139.364973  6  6  6 106       
PG06 -16645.123508  -2272.857040 -20536.957441    564.224649  7  8  3 104       
PG07  -2113.894350 -18070.734372  19658.206854     91.693677  6  6  4  68       
PG08   8828.620267 -16106.999256  18964.920948   -137.900321  5  5  6  65       
PG09  -6137.259821 -25684.477618  -2674.675653    -82.858525  6  8  6 105       
PG10  22857.964059  11259.163305   8239.792624    -49.867542  7  8  8 101       
PG11 -21859.205014   9903.897230 -11315.862545   -327.575898  7  5  3 104       
PG12 -10620.616383  12153.910513 -21354.203615   -414.616230  5  5  3  86       
PG13 -13616.351184   7589.753792  21284.163728    561.908017  7  7  8 100       
PG14 -20373.435591 -13531.282680  10581.686290    158.495606  4  7  6  92       
PG15  -6433.475834  17936.011238  17928.389427     69.029828  7  6  6  91       
PG16  23903.918903   -462.111948  11729.321161   -466.307584  3  6  4  72       
PG17 -13070.949749 -19032.259462 -12596.358228    722.915400  4  6  7 103       
PG18   3485.371786  16346.359769  20599.867910   -387.609240  5  8  6  93       
PG19 -15053.578391 -12033.390281 -18628.566160    359.638783  4  6  7  94       
PG20 -25861.246872   1973.055912   5269.900522    416.457731  5  8  7 128       
PG21  17474.261899 -19261.713549   2259.335248    150.487754  2  8  6  94       
PG22 -23712.531507 -11086.718184   3974.924341    138.900063  5  7  7  77       
PG23  12913.324491  15073.642364  17735.696203     56.912296  5  8  4  99       
PG24 -14136.114658  21978.625276  -3591.305780   -294.098158  4  6  7 100       
PG25   4901.701459  16303.244042 -20761.470091    462.983642  5  5  5 108       
PG26  26443.936779   3957.653129    753.370428    232.356479  3  4  6  97       
PG27  14613.746696  -3354.277911  21678.152404    -24.578564  5  4  2  66       
PG28  15871.210895   4135.303878 -20912.872892     74.796494  6  7  5 100       
PG29   3529.015862  26120.163721  -2836.050457   -608.027359  6  8  5  98       
PG30 -11095.771927 -11276.448260  21454.726842   -495.260318  6  3  2  82       
PG31  21148.695044  -5569.806601 -15540.176390   -222.071966  3  4  4 106       
PG32  15661.226735  15050.040323 -15240.994711   -543.159589  2  4  3  91       
*  2023  8 19  6 15  0.00000000
PG01  13643.160135 -21814.642430  -6156.248415    168.074941  7  7  5  92       
PG02  16631.770361 -20488.632134   2519.906504   -563.859526  4  8  5 101       
PG03   8076.443173 -13312.618977 -21644.891958   -180.031764  5  6  3 106       
PG04   2474.967040 -22683.152638 -13482.909389    130.021498  7  9  7 102       
PG05 -22371.469550   6072.569932  12875.948603   -139.366480  5  6  5 101       
PG06 -15059.216893  -4082.658114 -21449.808874    564.219817  8  7  3 101       
PG07   -595.906204 -19528.534789  18243.128285     91.683850  5  6  4  73       
PG08   9717.916812 -14018.167585  20181.669423   -137.902547  5  4  5  88       
PG09  -5735.449253 -25340.087976  -5474.758297    -82.849699  7  9  6 113       
PG10  21791.427973  11195.454115  10832.813463    -49.868789  7  7  8  97       
PG11 -20994.885872   8744.677605 -13665.959614   -327.591620  7  4  2 111       
PG12 -12849.613477  11443.464784 -20486.487078   -414.620203  5  5  4  97       
PG13 -14099.978548   5136.262809  21713.705199    561.912382  6  7  7  75       
PG14 -19015.831706 -13443.855338  12944.457505    158.506091  4  7  6  48       
PG15  -7582.240768  16013.309847  19240.811234     69.033012  7  5  6  88       
PG16  25021.811508     79.422944   9245.220842   -466.303177  3  6  3  88       
PG17 -13215.084659 -20402.716436 -10135.331134    722.915520  3  7  7  88       
PG18   1854.915833  17958.469637  19420.279650   -387.621206  6  9  6  87       
PG19 -15360.453730 -13996.318322 -16938.727566    359.643447  3  6  7  93       
PG20 -26292.128808   1659.341027   2472.314995    416.456032  5  8  7 120       
PG21  17499.904080 -18773.077009   5128.645176    150.487019  2  8  6 101       
PG22 -23095.947461 -11164.951381   6763.150255    138.893355  6  7  7  89       
PG23  10819.411832  14805.200734  19280.314457     56.916592  6  8  4  94       
PG24 -14553.829169  21934.978505   -779.950337   -294.108413  4  6  7  96       
PG25   2585.844586  15904.615363 -21463.330927    462.985573  5  5  5 108       
PG26  26343.023503   4253.645604  -2024.094562    232.355131  3  5  6 102       
PG27  15398.170718   -964.131041  21410.935166    -24.584605  5  4  3  75       
PG28  14358.710173   6030.406066 -21536.820386     74.793290  6  7  6  90       
PG29   3204.381050  25703.426491  -5672.451395   -608.028074  6  7  5  95       
PG30  -9437.142298 -13047.677660  21218.279015   -495.257500  5  4  2  59       
PG31  20000.565703  -4124.137177 -17384.090177   -222.072672  3  4  4 114       
PG32  16009.150855  16665.430339 -13089.171200   -543.165671  2  4  3  95       
*  2023  8 19  6 30  0.00000000
PG01  14108.112033 -22087.006952  -3289.601977    168.073691  7  7  5  87       
PG02  16614.433787 -20025.242468   5352.599782   -563.855910  4  8  5  81       
PG03  10441.630386 -12913.557851 -20845.150844   -180.015105  5  6  3 106       
PG04   3223.015409 -21177.630829 -15614.809630    130.031796  7  9  7 101       
PG05 -23702.892630   5745.626799  10460.081387   -139.367853  5  7  5 110       
PG06 -13525.495671  -6044.429559 -21992.085749    564.215012  8  7  3 102       
PG07    741.758008 -20927.929630  16520.097441     91.673947  5  7  4  77       
PG08  10757.419359 -11871.146619  21045.786606   -137.904482  5  3  5  69       
PG09  -5196.605323 -24729.443226  -8180.530211    -82.840796  7  9  6 111       
PG10  20445.433798  11150.409293  13244.087783    -49.870141  7  6  7  87       
PG11 -20025.784898   7351.443795 -15780.153261   -327.607350  6  3  3  93       
PG12 -15001.165161  10877.251631 -19273.832236   -414.624206  5  6  4  82       
PG13 -14718.987286   2687.167701  21762.576981    561.916530  6  7  6  86       
PG14 -17405.494782 -13379.846719  15086.537699    158.516538  4  7  5  89       
PG15  -8883.459691  14031.676344  20206.596305     69.036433  7  5  5  96       
PG16  25884.295928    489.818647   6604.010111   -466.298475  3  6  3  69       
PG17 -13343.545046 -21482.488495  -7495.374422    722.916215  4  7  7  79       
PG18    410.161744  19539.000224  17904.849214   -387.633110  6  9  5  99       
PG19 -15719.746879 -15741.186028 -14965.434863    359.648081  3  7  8  70       
PG20 -26418.148855   1360.451719   -368.301221    416.454118  5  8  7 124       
PG21  17367.311349 -18020.048463   7905.775796    150.485895  2  7  7  97       
PG22 -22186.663330 -11198.464090   9434.617508    138.886834  6  7  7  87       
PG23   8557.690593  14633.014212  20494.938357     56.920938  6  8  4  92       
PG24 -14799.023526  21641.550501   2045.137916   -294.118648  4  6  7  82       
PG25    192.929450  15618.311488 -21807.221696    462.987478  5  4  5  88       
PG26  25949.124874   4528.793831  -4767.506007    232.353748  4  5  5  92       
PG27  16286.232605   1328.914950  20768.171628    -24.590619  4  4  3  83       
PG28  12917.853666   8041.870235 -21790.919980     74.790022  7  7  6  87       
PG29   2764.565021  25002.375196  -8410.741250   -608.028621  6  7  5  82       
PG30  -7893.636624 -14862.624511  20619.864561   -495.254643  5  4  2  82       
PG31  18807.239767  -2473.308515 -18937.384031   -222.073430  3  4  4 101       
PG32  16345.256080  18020.365092 -10712.023665   -543.171778  2  3  3  83       
EOF
